LEGION 1                
1 59625U 24081A   26193.49437662  .00002170  00000+0  11371-3 0  9999
2 59625  97.5015 271.0827 0007680 280.8093  79.2276 15.16833045121377
LEGION 2                
1 59626U 24081B   26193.45875270  .00001895  00000+0  99776-4 0  9996
2 59626  97.5015 271.1443 0010078 244.1262 115.8933 15.16811752121377
LEGION 3                
1 60452U 24146A   26193.50242904  .00002022  00000+0  11815-3 0  9995
2 60452  45.0011 254.8222 0008445 319.4879  40.5370 15.15645709105869
LEGION 4                
1 60453U 24146B   26193.50222389  .00002551  00000+0  14536-3 0  9991
2 60453  45.0029 346.6899 0008928  96.7298 263.4597 15.15668565104710
LEGION 5                
1 62900U 25025A   26193.30517458  .00001631  00000+0  96845-4 0  9991
2 62900  44.9997 166.7140 0008448 288.2535  71.7424 15.16061682 78302
LEGION 6                
1 62901U 25025B   26193.17187141  .00001597  00000+0  96105-4 0  9999
2 62901  45.0015  76.5679 0010818 261.1645  98.8009 15.15676771 79420
