{"fetched_at":"2026-07-12T17:32:54.012Z","source":"https://celestrak.org/NORAD/elements/gp.php?NAME=LEGION&FORMAT=JSON","constellation":"maxar-legion","records":[{"OBJECT_NAME":"LEGION 1","OBJECT_ID":"2024-081A","EPOCH":"2026-07-12T11:51:54.139968","CLASSIFICATION_TYPE":"U","MEAN_MOTION":15.16833045,"ECCENTRICITY":0.000768,"INCLINATION":97.5015,"RA_OF_ASC_NODE":271.0827,"ARG_OF_PERICENTER":280.8093,"MEAN_ANOMALY":79.2276,"EPHEMERIS_TYPE":0,"NORAD_CAT_ID":59625,"ELEMENT_SET_NO":999,"REV_AT_EPOCH":12137,"BSTAR":0.00011371,"MEAN_MOTION_DOT":0.0000217,"MEAN_MOTION_DDOT":0},{"OBJECT_NAME":"LEGION 2","OBJECT_ID":"2024-081B","EPOCH":"2026-07-12T11:00:36.233280","CLASSIFICATION_TYPE":"U","MEAN_MOTION":15.16811752,"ECCENTRICITY":0.0010078,"INCLINATION":97.5015,"RA_OF_ASC_NODE":271.1443,"ARG_OF_PERICENTER":244.1262,"MEAN_ANOMALY":115.8933,"EPHEMERIS_TYPE":0,"NORAD_CAT_ID":59626,"ELEMENT_SET_NO":999,"REV_AT_EPOCH":12137,"BSTAR":0.000099776,"MEAN_MOTION_DOT":0.00001895,"MEAN_MOTION_DDOT":0},{"OBJECT_NAME":"LEGION 3","OBJECT_ID":"2024-146A","EPOCH":"2026-07-12T12:03:29.869056","CLASSIFICATION_TYPE":"U","MEAN_MOTION":15.15645709,"ECCENTRICITY":0.0008445,"INCLINATION":45.0011,"RA_OF_ASC_NODE":254.8222,"ARG_OF_PERICENTER":319.4879,"MEAN_ANOMALY":40.537,"EPHEMERIS_TYPE":0,"NORAD_CAT_ID":60452,"ELEMENT_SET_NO":999,"REV_AT_EPOCH":10586,"BSTAR":0.00011815,"MEAN_MOTION_DOT":0.00002022,"MEAN_MOTION_DDOT":0},{"OBJECT_NAME":"LEGION 4","OBJECT_ID":"2024-146B","EPOCH":"2026-07-12T12:03:12.144096","CLASSIFICATION_TYPE":"U","MEAN_MOTION":15.15668565,"ECCENTRICITY":0.0008928,"INCLINATION":45.0029,"RA_OF_ASC_NODE":346.6899,"ARG_OF_PERICENTER":96.7298,"MEAN_ANOMALY":263.4597,"EPHEMERIS_TYPE":0,"NORAD_CAT_ID":60453,"ELEMENT_SET_NO":999,"REV_AT_EPOCH":10471,"BSTAR":0.00014536,"MEAN_MOTION_DOT":0.00002551,"MEAN_MOTION_DDOT":0},{"OBJECT_NAME":"LEGION 5","OBJECT_ID":"2025-025A","EPOCH":"2026-07-12T07:19:27.083712","CLASSIFICATION_TYPE":"U","MEAN_MOTION":15.16061682,"ECCENTRICITY":0.0008448,"INCLINATION":44.9997,"RA_OF_ASC_NODE":166.714,"ARG_OF_PERICENTER":288.2535,"MEAN_ANOMALY":71.7424,"EPHEMERIS_TYPE":0,"NORAD_CAT_ID":62900,"ELEMENT_SET_NO":999,"REV_AT_EPOCH":7830,"BSTAR":0.000096845,"MEAN_MOTION_DOT":0.00001631,"MEAN_MOTION_DDOT":0},{"OBJECT_NAME":"LEGION 6","OBJECT_ID":"2025-025B","EPOCH":"2026-07-12T04:07:29.689824","CLASSIFICATION_TYPE":"U","MEAN_MOTION":15.15676771,"ECCENTRICITY":0.0010818,"INCLINATION":45.0015,"RA_OF_ASC_NODE":76.5679,"ARG_OF_PERICENTER":261.1645,"MEAN_ANOMALY":98.8009,"EPHEMERIS_TYPE":0,"NORAD_CAT_ID":62901,"ELEMENT_SET_NO":999,"REV_AT_EPOCH":7942,"BSTAR":0.000096105,"MEAN_MOTION_DOT":0.00001597,"MEAN_MOTION_DDOT":0}]}
